CZ-4B R/B               
1 28415U 04035C   25290.32645622  .00009924  00000+0  38049-3 0  9990
2 28415  97.3697 321.4508 0036046 115.2893 245.2087 15.26086913158029
CZ-2C R/B               
1 28480U 04046B   25290.30053467  .00000261  00000+0  11265-3 0  9998
2 28480  98.1931 209.2025 0138684 218.5367 140.5851 14.26904418 88051
ARIANE 5 R/B            
1 28499U 04049H   25290.31964308  .00001668  00000+0  19071-3 0  9992
2 28499  98.2499  88.5981 0086063  95.6265 265.4771 14.84838909124519
CZ-2D R/B               
1 28738U 05024B   25290.28039235  .00034032  00000+0  61972-3 0  9998
2 28738  97.3698 296.3873 0005904 164.5800 195.5632 15.49401375117506
ALOS (DAICHI)           
1 28931U 06002A   25290.31009870  .00002531  00000+0  43804-3 0  9999
2 28931  98.0988 242.2358 0002160  65.7829 294.3602 14.69200101 52422
H-2A R/B                
1 28932U 06002B   25290.26977566  .00010203  00000+0  55821-3 0  9997
2 28932  98.2266  60.4940 0056123   9.5059 350.7218 15.13113456 72721
RESURS-DK 1             
1 29228U 06021A   25290.26391182  .00004367  00000+0  26200-3 0  9994
2 29228  69.9323 247.7346 0006439 313.0567  47.0059 15.11686634 65846
CZ-4B R/B               
1 29507U 06046C   25290.11679225  .00008708  00000+0  46172-3 0  9995
2 29507  97.5835 330.4128 0035798  46.6677 313.7529 15.15053454 38296
CZ-2C R/B               
1 31114U 07010B   25290.28581598  .00000175  00000+0  99447-4 0  9991
2 31114  98.3934  45.7910 0058816 352.3499   7.6776 14.20177184959367
COSMO-SKYMED 1          
1 31598U 07023A   25290.24901439  .00006463  00000+0  59347-3 0  9997
2 31598  97.8870 115.2958 0001111  89.4151 270.7197 14.95181146993453
COSMOS 2428             
1 31792U 07029A   25290.02930209 -.00000205  00000+0 -84507-4 0  9999
2 31792  70.9388 144.9373 0001997 156.4651 203.6562 14.12897859943806
SL-16 R/B               
1 31793U 07029B   25290.25026128  .00000051  00000+0  51120-4 0  9993
2 31793  70.9733 113.8986 0002672 266.0779 146.3971 14.14804669945084
KORONAS-FOTON           
1 33504U 09003A   25290.62425080  .00019862  00000+0  50703-3 0  9995
2 33504  82.4308  64.1559 0010930 314.2920  45.7428 15.39299276923700
CZ-2C R/B               
1 37731U 11030B   25290.66288927  .00002357  00000+0  30617-3 0  9998
2 37731  97.8310 246.0539 0054805  95.5791  76.6200 14.80603838768922
H-2A R/B                
1 38341U 12025E   25290.58733461  .00005131  00000+0  47913-3 0  9990
2 38341  98.4491 241.5453 0047100  61.3798 299.2145 14.93831883726843
SHIJIAN-16 (SJ-16)      
1 39358U 13057A   25290.74017934  .00001810  00000+0  18236-3 0  9999
2 39358  74.9696  95.5855 0016012 100.3317 259.9677 14.91692880650186
SL-4 R/B                
1 39679U 14021B   25290.25751894  .00017562  00000+0  44049-3 0  9995
2 39679  51.6094 314.6513 0106238 302.3535  56.7197 15.34456071634212
ALOS-2                  
1 39766U 14029A   25288.51111723  .00004139  00000+0  56096-3 0  9998
2 39766  97.9224  24.1862 0001572 104.5382 255.6004 14.79458929615403
YAOGAN-29               
1 41038U 15069A   25290.74424068  .00000693  00000+0  92472-4 0  9995
2 41038  98.0284 313.7177 0002911  92.2312 267.9234 14.82789293534693
ASTRO-H (HITOMI)        
1 41337U 16012A   25290.46901294  .00005266  00000+0  32041-3 0  9992
2 41337  30.9995 199.9903 0010170 331.6003  28.4080 15.08835610530579
HXMT (HUIYAN)           
1 42758U 17034A   25290.71426799  .00007691  00000+0  40788-3 0  9996
2 42758  43.0131  90.3137 0032153  50.3683 309.9995 15.15313171460835
CZ-2C R/B               
1 43521U 18054D   25290.45644470  .00076688  00000+0  79355-3 0  9991
2 43521  35.1358 199.1994 0029485 321.0238  38.8367 15.62946347406216
SAOCOM 1A               
1 43641U 18076A   25290.77320847  .00000770  00000+0  10325-3 0  9993
2 43641  97.8879 116.0019 0001440  87.5500 272.5878 14.82151410380197
H-2A R/B                
1 43682U 18084L   25290.66807441  .00029993  00000+0  88197-3 0  9995
2 43682  98.8823 113.2498 0029445 156.7688 203.4889 15.34626537383792
SAOCOM 1B               
1 46265U 20059A   25290.46687589  .00000832  00000+0  11106-3 0  9994
2 46265  97.8876 114.8041 0001406  91.9731 268.1643 14.82163731277530
CSS (TIANHE)            
1 48274U 21035A   25290.62306409  .00047068  00000+0  56508-3 0  9995
2 48274  41.4666 357.6657 0011336 231.3071 128.6754 15.59994995255262
COSMOS 2550             
1 48865U 21056A   25286.08300874 -.00000196  00000+0 -12132-6 0  9990
2 48865  67.1394 127.4689 0008372 269.3496  90.6699 15.33848390240828
CZ-2C R/B               
1 52794U 22058K   25289.43061186  .00025260  00000+0  51394-3 0  9998
2 52794  50.1919 334.9450 0052342 319.2400  40.4656 15.44595159187769
GSLV R/B                
1 54149U 22138AN  25290.32986955  .00005391  00000+0  48102-3 0  9999
2 54149  87.3847 214.3461 0020036 319.0946  40.8781 14.95637754162497
XRISM                   
1 57800U 23137A   25290.24690831  .00007575  00000+0  45555-3 0  9997
2 57800  31.0013 130.0438 0008368  34.9660 325.1527 15.09463945116089
ACS3                    
1 59588U 24077B   25290.20870382 -.00023800  00000+0 -22092-1 0  9993
2 59588  97.3600 258.2828 0018497 356.7015   3.4020 13.82210890 74322
